{
  "type": "FeatureCollection",
  "features": [
    {
      "type": "Feature",
      "properties": {
        "norad_id": 41772,
        "name": "SKYSAT-C5",
        "group": "resource",
        "lat": -16.017683016009478,
        "lon": 22.776730803065167,
        "alt_km": 465.7907590842742,
        "timestamp": "2025-12-02T13:52:16.933114+00:00",
        "meta_object_name": "SKYSAT-C5",
        "meta_object_id": "2016-058C",
        "meta_epoch": "2025-12-02T01:25:42.406176",
        "meta_mean_motion": 15.3536725,
        "meta_eccentricity": 0.00027678,
        "meta_inclination": 97.0773,
        "meta_ra_of_asc_node": 20.2347,
        "meta_arg_of_pericenter": 114.4197,
        "meta_mean_anomaly": 245.7336,
        "meta_ephemeris_type": 0,
        "meta_classification_type": "U",
        "meta_norad_cat_id": 41772,
        "meta_element_set_no": 999,
        "meta_rev_at_epoch": 51352,
        "meta_bstar": 0.0015599666,
        "meta_mean_motion_dot": 0.00053827,
        "meta_mean_motion_ddot": 0,
        "tle_line1": "1 41772U 16058C   25336.05951859  .00053827  00000+0  15600-2 0  9990",
        "tle_line2": "2 41772  97.0773  20.2347 0002767 114.4197 245.7336 15.35367250513526"
      },
      "geometry": {
        "type": "Point",
        "coordinates": [
          22.776730803065167,
          -16.017683016009478
        ]
      }
    },
    {
      "type": "Feature",
      "properties": {
        "norad_id": 41773,
        "name": "SKYSAT-C2",
        "group": "resource",
        "lat": -68.85884213782423,
        "lon": 20.169503497302927,
        "alt_km": 464.765142853772,
        "timestamp": "2025-12-02T13:52:16.933123+00:00",
        "meta_object_name": "SKYSAT-C2",
        "meta_object_id": "2016-058D",
        "meta_epoch": "2025-12-02T01:40:29.417088",
        "meta_mean_motion": 15.36900037,
        "meta_eccentricity": 0.00051371,
        "meta_inclination": 97.0376,
        "meta_ra_of_asc_node": 1.0519,
        "meta_arg_of_pericenter": 61.0509,
        "meta_mean_anomaly": 299.1251,
        "meta_ephemeris_type": 0,
        "meta_classification_type": "U",
        "meta_norad_cat_id": 41773,
        "meta_element_set_no": 999,
        "meta_rev_at_epoch": 51472,
        "meta_bstar": 0.00037109717,
        "meta_mean_motion_dot": 0.00013325,
        "meta_mean_motion_ddot": 0,
        "tle_line1": "1 41773U 16058D   25336.06978492  .00013325  00000+0  37110-3 0  9994",
        "tle_line2": "2 41773  97.0376   1.0519 0005137  61.0509 299.1251 15.36900037514721"
      },
      "geometry": {
        "type": "Point",
        "coordinates": [
          20.169503497302927,
          -68.85884213782423
        ]
      }
    },
    {
      "type": "Feature",
      "properties": {
        "norad_id": 41774,
        "name": "SKYSAT-C3",
        "group": "resource",
        "lat": -41.61771498092848,
        "lon": -175.4033788095972,
        "alt_km": 441.99440621138365,
        "timestamp": "2025-12-02T13:52:16.933133+00:00",
        "meta_object_name": "SKYSAT-C3",
        "meta_object_id": "2016-058E",
        "meta_epoch": "2025-12-02T02:01:26.634720",
        "meta_mean_motion": 15.43828804,
        "meta_eccentricity": 0.00013941,
        "meta_inclination": 96.9318,
        "meta_ra_of_asc_node": 10.3311,
        "meta_arg_of_pericenter": 98.2621,
        "meta_mean_anomaly": 261.8787,
        "meta_ephemeris_type": 0,
        "meta_classification_type": "U",
        "meta_norad_cat_id": 41774,
        "meta_element_set_no": 999,
        "meta_rev_at_epoch": 51561,
        "meta_bstar": 0.000469643,
        "meta_mean_motion_dot": 0.0002123,
        "meta_mean_motion_ddot": 0,
        "tle_line1": "1 41774U 16058E   25336.08433605  .00021230  00000+0  46964-3 0  9990",
        "tle_line2": "2 41774  96.9318  10.3311 0001394  98.2621 261.8787 15.43828804515615"
      },
      "geometry": {
        "type": "Point",
        "coordinates": [
          -175.4033788095972,
          -41.61771498092848
        ]
      }
    },
    {
      "type": "Feature",
      "properties": {
        "norad_id": 41785,
        "name": "ALSAT 1B",
        "group": "resource",
        "lat": -12.02505827239201,
        "lon": 167.1369281805087,
        "alt_km": 655.2490785549444,
        "timestamp": "2025-12-02T13:52:16.933148+00:00",
        "meta_object_name": "ALSAT 1B",
        "meta_object_id": "2016-059C",
        "meta_epoch": "2025-12-02T06:28:37.869600",
        "meta_mean_motion": 14.72057263,
        "meta_eccentricity": 0.00103217,
        "meta_inclination": 97.782,
        "meta_ra_of_asc_node": 348.5114,
        "meta_arg_of_pericenter": 133.5528,
        "meta_mean_anomaly": 226.6539,
        "meta_ephemeris_type": 0,
        "meta_classification_type": "U",
        "meta_norad_cat_id": 41785,
        "meta_element_set_no": 999,
        "meta_rev_at_epoch": 49160,
        "meta_bstar": 9.8649849e-05,
        "meta_mean_motion_dot": 5.73e-06,
        "meta_mean_motion_ddot": 0,
        "tle_line1": "1 41785U 16059C   25336.26988275  .00000573  00000+0  98650-4 0  9998",
        "tle_line2": "2 41785  97.7820 348.5114 0010321 133.5528 226.6539 14.72057263491600"
      },
      "geometry": {
        "type": "Point",
        "coordinates": [
          167.1369281805087,
          -12.02505827239201
        ]
      }
    },
    {
      "type": "Feature",
      "properties": {
        "norad_id": 41787,
        "name": "PATHFINDER 1",
        "group": "resource",
        "lat": 80.27249957884165,
        "lon": -73.40804216512659,
        "alt_km": 643.6528106259839,
        "timestamp": "2025-12-02T13:52:16.933158+00:00",
        "meta_object_name": "PATHFINDER 1",
        "meta_object_id": "2016-059E",
        "meta_epoch": "2025-12-02T06:56:35.490624",
        "meta_mean_motion": 14.67291697,
        "meta_eccentricity": 0.00299301,
        "meta_inclination": 97.814,
        "meta_ra_of_asc_node": 339.548,
        "meta_arg_of_pericenter": 112.9409,
        "meta_mean_anomaly": 247.4959,
        "meta_ephemeris_type": 0,
        "meta_classification_type": "U",
        "meta_norad_cat_id": 41787,
        "meta_element_set_no": 999,
        "meta_rev_at_epoch": 49083,
        "meta_bstar": 0.0002013003,
        "meta_mean_motion_dot": 1.096e-05,
        "meta_mean_motion_ddot": 0,
        "tle_line1": "1 41787U 16059E   25336.28929966  .00001096  00000+0  20130-3 0  9992",
        "tle_line2": "2 41787  97.8140 339.5480 0029930 112.9409 247.4959 14.67291697490835"
      },
      "geometry": {
        "type": "Point",
        "coordinates": [
          -73.40804216512659,
          80.27249957884165
        ]
      }
    },
    {
      "type": "Feature",
      "properties": {
        "norad_id": 41790,
        "name": "SCATSAT 1",
        "group": "resource",
        "lat": 12.254223071269639,
        "lon": 31.338156485274613,
        "alt_km": 667.1487921827656,
        "timestamp": "2025-12-02T13:52:16.933169+00:00",
        "meta_object_name": "SCATSAT 1",
        "meta_object_id": "2016-059H",
        "meta_epoch": "2025-12-02T04:04:18.892704",
        "meta_mean_motion": 14.78875526,
        "meta_eccentricity": 0.00557394,
        "meta_inclination": 98.1482,
        "meta_ra_of_asc_node": 32.708,
        "meta_arg_of_pericenter": 161.5626,
        "meta_mean_anomaly": 198.7622,
        "meta_ephemeris_type": 0,
        "meta_classification_type": "U",
        "meta_norad_cat_id": 41790,
        "meta_element_set_no": 999,
        "meta_rev_at_epoch": 7246,
        "meta_bstar": 0.00029277794,
        "meta_mean_motion_dot": 2.157e-05,
        "meta_mean_motion_ddot": 0,
        "tle_line1": "1 41790U 16059H   25336.16966311  .00002157  00000+0  29278-3 0  9999",
        "tle_line2": "2 41790  98.1482  32.7080 0055739 161.5626 198.7622 14.78875526 72468"
      },
      "geometry": {
        "type": "Point",
        "coordinates": [
          31.338156485274613,
          12.254223071269639
        ]
      }
    },
    {
      "type": "Feature",
      "properties": {
        "norad_id": 41875,
        "name": "GOKTURK 1A",
        "group": "resource",
        "lat": -32.65651995846264,
        "lon": -125.65613399350495,
        "alt_km": 690.7576683697225,
        "timestamp": "2025-12-02T13:52:16.933179+00:00",
        "meta_object_name": "GOKTURK 1A",
        "meta_object_id": "2016-073A",
        "meta_epoch": "2025-12-02T07:27:18.806976",
        "meta_mean_motion": 14.62759385,
        "meta_eccentricity": 0.00012448,
        "meta_inclination": 98.1431,
        "meta_ra_of_asc_node": 228.8148,
        "meta_arg_of_pericenter": 82.0007,
        "meta_mean_anomaly": 278.1336,
        "meta_ephemeris_type": 0,
        "meta_classification_type": "U",
        "meta_norad_cat_id": 41875,
        "meta_element_set_no": 999,
        "meta_rev_at_epoch": 48004,
        "meta_bstar": 0.00016112957,
        "meta_mean_motion_dot": 7.75e-06,
        "meta_mean_motion_ddot": 0,
        "tle_line1": "1 41875U 16073A   25336.31063434  .00000775  00000+0  16113-3 0  9998",
        "tle_line2": "2 41875  98.1431 228.8148 0001244  82.0007 278.1336 14.62759385480040"
      },
      "geometry": {
        "type": "Point",
        "coordinates": [
          -125.65613399350495,
          -32.65651995846264
        ]
      }
    }
  ]
}